[{"OBJECT_NAME":"STARLINK-34628","OBJECT_ID":"2025-152Y","EPOCH":"2026-03-09T14:01:51.313152","MEAN_MOTION":15.05660627,"ECCENTRICITY":0.0002788,"INCLINATION":97.6017,"RA_OF_ASC_NODE":285.438,"ARG_OF_PERICENTER":71.4734,"MEAN_ANOMALY":288.6796,"EPHEMERIS_TYPE":0,"CLASSIFICATION_TYPE":"U","NORAD_CAT_ID":64864,"ELEMENT_SET_NO":999,"REV_AT_EPOCH":3540,"BSTAR":0.00042597,"MEAN_MOTION_DOT":6.093e-5,"MEAN_MOTION_DDOT":0},{"OBJECT_NAME":"DELTA 1 DEB","OBJECT_ID":"1977-065GK","EPOCH":"2026-03-09T12:42:00.380448","MEAN_MOTION":14.06309065,"ECCENTRICITY":0.05229834,"INCLINATION":29.0296,"RA_OF_ASC_NODE":199.7344,"ARG_OF_PERICENTER":45.239,"MEAN_ANOMALY":318.9544,"EPHEMERIS_TYPE":0,"CLASSIFICATION_TYPE":"U","NORAD_CAT_ID":39098,"ELEMENT_SET_NO":999,"REV_AT_EPOCH":61131,"BSTAR":0.00047724368,"MEAN_MOTION_DOT":2.979e-5,"MEAN_MOTION_DDOT":0}]
